[{"OBJECT_NAME":"STARLINK-32908","OBJECT_ID":"2025-037H","EPOCH":"2025-11-02T10:52:58.849824","MEAN_MOTION":14.98337575,"ECCENTRICITY":0.0003516,"INCLINATION":70.0007,"RA_OF_ASC_NODE":315.2485,"ARG_OF_PERICENTER":272.4966,"MEAN_ANOMALY":87.579,"EPHEMERIS_TYPE":0,"CLASSIFICATION_TYPE":"U","NORAD_CAT_ID":63084,"ELEMENT_SET_NO":999,"REV_AT_EPOCH":3940,"BSTAR":4.3177e-5,"MEAN_MOTION_DOT":4.22e-6,"MEAN_MOTION_DDOT":0},{"OBJECT_NAME":"STARLINK-32505","OBJECT_ID":"2025-037J","EPOCH":"2025-11-02T09:59:09.818304","MEAN_MOTION":14.98330482,"ECCENTRICITY":0.0003145,"INCLINATION":70.0003,"RA_OF_ASC_NODE":315.5198,"ARG_OF_PERICENTER":270.5705,"MEAN_ANOMALY":89.5093,"EPHEMERIS_TYPE":0,"CLASSIFICATION_TYPE":"U","NORAD_CAT_ID":63085,"ELEMENT_SET_NO":999,"REV_AT_EPOCH":3948,"BSTAR":0.00010242,"MEAN_MOTION_DOT":1.129e-5,"MEAN_MOTION_DDOT":0},{"OBJECT_NAME":"STARLINK-32914","OBJECT_ID":"2025-037K","EPOCH":"2025-11-02T10:58:59.454048","MEAN_MOTION":14.98337979,"ECCENTRICITY":0.0003135,"INCLINATION":70.0005,"RA_OF_ASC_NODE":315.2608,"ARG_OF_PERICENTER":267.5167,"MEAN_ANOMALY":92.5633,"EPHEMERIS_TYPE":0,"CLASSIFICATION_TYPE":"U","NORAD_CAT_ID":63086,"ELEMENT_SET_NO":999,"REV_AT_EPOCH":3954,"BSTAR":0.00026855,"MEAN_MOTION_DOT":3.113e-5,"MEAN_MOTION_DDOT":0},{"OBJECT_NAME":"STARLINK-32918","OBJECT_ID":"2025-037L","EPOCH":"2025-11-02T11:23:02.490432","MEAN_MOTION":14.98341575,"ECCENTRICITY":0.0003111,"INCLINATION":70.0005,"RA_OF_ASC_NODE":315.3217,"ARG_OF_PERICENTER":273.8592,"MEAN_ANOMALY":86.2211,"EPHEMERIS_TYPE":0,"CLASSIFICATION_TYPE":"U","NORAD_CAT_ID":63087,"ELEMENT_SET_NO":999,"REV_AT_EPOCH":3963,"BSTAR":0.00042042,"MEAN_MOTION_DOT":4.928e-5,"MEAN_MOTION_DDOT":0},{"OBJECT_NAME":"STARLINK-32912","OBJECT_ID":"2025-037M","EPOCH":"2025-11-02T10:17:09.485664","MEAN_MOTION":14.9833457,"ECCENTRICITY":0.0003468,"INCLINATION":69.9999,"RA_OF_ASC_NODE":315.1643,"ARG_OF_PERICENTER":270.6105,"MEAN_ANOMALY":89.4657,"EPHEMERIS_TYPE":0,"CLASSIFICATION_TYPE":"U","NORAD_CAT_ID":63088,"ELEMENT_SET_NO":999,"REV_AT_EPOCH":3964,"BSTAR":0.00028015,"MEAN_MOTION_DOT":3.252e-5,"MEAN_MOTION_DDOT":0},{"OBJECT_NAME":"STARLINK-32910","OBJECT_ID":"2025-037N","EPOCH":"2025-11-02T11:05:14.496576","MEAN_MOTION":14.98332,"ECCENTRICITY":0.0003451,"INCLINATION":70.0009,"RA_OF_ASC_NODE":315.2766,"ARG_OF_PERICENTER":271.0369,"MEAN_ANOMALY":89.0395,"EPHEMERIS_TYPE":0,"CLASSIFICATION_TYPE":"U","NORAD_CAT_ID":63089,"ELEMENT_SET_NO":999,"REV_AT_EPOCH":3954,"BSTAR":0.00014403,"MEAN_MOTION_DOT":1.626e-5,"MEAN_MOTION_DDOT":0},{"OBJECT_NAME":"STARLINK-32903","OBJECT_ID":"2025-037P","EPOCH":"2025-11-02T10:10:54.554592","MEAN_MOTION":14.98333704,"ECCENTRICITY":0.0003225,"INCLINATION":70.0002,"RA_OF_ASC_NODE":315.152,"ARG_OF_PERICENTER":270.1231,"MEAN_ANOMALY":89.9558,"EPHEMERIS_TYPE":0,"CLASSIFICATION_TYPE":"U","NORAD_CAT_ID":63090,"ELEMENT_SET_NO":999,"REV_AT_EPOCH":3940,"BSTAR":0.00023002,"MEAN_MOTION_DOT":2.653e-5,"MEAN_MOTION_DDOT":0},{"OBJECT_NAME":"STARLINK-32925","OBJECT_ID":"2025-037Q","EPOCH":"2025-11-02T10:16:55.081920","MEAN_MOTION":14.98334129,"ECCENTRICITY":0.0003641,"INCLINATION":69.9999,"RA_OF_ASC_NODE":315.1612,"ARG_OF_PERICENTER":269.1598,"MEAN_ANOMALY":90.9144,"EPHEMERIS_TYPE":0,"CLASSIFICATION_TYPE":"U","NORAD_CAT_ID":63091,"ELEMENT_SET_NO":999,"REV_AT_EPOCH":3948,"BSTAR":0.00023756,"MEAN_MOTION_DOT":2.743e-5,"MEAN_MOTION_DDOT":0},{"OBJECT_NAME":"STARLINK-32924","OBJECT_ID":"2025-037R","EPOCH":"2025-11-02T10:28:56.336160","MEAN_MOTION":14.98335056,"ECCENTRICITY":0.0003621,"INCLINATION":69.9998,"RA_OF_ASC_NODE":315.194,"ARG_OF_PERICENTER":269.8742,"MEAN_ANOMALY":90.2002,"EPHEMERIS_TYPE":0,"CLASSIFICATION_TYPE":"U","NORAD_CAT_ID":63092,"ELEMENT_SET_NO":999,"REV_AT_EPOCH":3954,"BSTAR":0.00026591,"MEAN_MOTION_DOT":3.082e-5,"MEAN_MOTION_DDOT":0},{"OBJECT_NAME":"STARLINK-32900","OBJECT_ID":"2025-037S","EPOCH":"2025-11-02T10:46:58.833120","MEAN_MOTION":14.98318472,"ECCENTRICITY":0.0003466,"INCLINATION":70.0003,"RA_OF_ASC_NODE":315.2353,"ARG_OF_PERICENTER":275.5753,"MEAN_ANOMALY":84.501,"EPHEMERIS_TYPE":0,"CLASSIFICATION_TYPE":"U","NORAD_CAT_ID":63093,"ELEMENT_SET_NO":999,"REV_AT_EPOCH":3940,"BSTAR":0.00048543,"MEAN_MOTION_DOT":5.702e-5,"MEAN_MOTION_DDOT":0},{"OBJECT_NAME":"STARLINK-32927","OBJECT_ID":"2025-037T","EPOCH":"2025-11-02T09:52:54.850080","MEAN_MOTION":14.98330311,"ECCENTRICITY":0.000302,"INCLINATION":70.001,"RA_OF_ASC_NODE":315.5072,"ARG_OF_PERICENTER":270.6817,"MEAN_ANOMALY":89.3996,"EPHEMERIS_TYPE":0,"CLASSIFICATION_TYPE":"U","NORAD_CAT_ID":63094,"ELEMENT_SET_NO":999,"REV_AT_EPOCH":3948,"BSTAR":9.3821e-5,"MEAN_MOTION_DOT":1.027e-5,"MEAN_MOTION_DDOT":0},{"OBJECT_NAME":"STARLINK-32907","OBJECT_ID":"2025-037U","EPOCH":"2025-11-02T11:11:01.033152","MEAN_MOTION":14.98335928,"ECCENTRICITY":0.0003014,"INCLINATION":70.0008,"RA_OF_ASC_NODE":315.2907,"ARG_OF_PERICENTER":271.9268,"MEAN_ANOMALY":88.1546,"EPHEMERIS_TYPE":0,"CLASSIFICATION_TYPE":"U","NORAD_CAT_ID":63095,"ELEMENT_SET_NO":999,"REV_AT_EPOCH":3949,"BSTAR":0.0002155,"MEAN_MOTION_DOT":2.48e-5,"MEAN_MOTION_DDOT":0},{"OBJECT_NAME":"STARLINK-32911","OBJECT_ID":"2025-037V","EPOCH":"2025-11-02T11:41:04.386048","MEAN_MOTION":14.98330509,"ECCENTRICITY":0.0002975,"INCLINATION":70.0003,"RA_OF_ASC_NODE":315.3642,"ARG_OF_PERICENTER":264.4372,"MEAN_ANOMALY":95.6448,"EPHEMERIS_TYPE":0,"CLASSIFICATION_TYPE":"U","NORAD_CAT_ID":63096,"ELEMENT_SET_NO":999,"REV_AT_EPOCH":3954,"BSTAR":0.00021928,"MEAN_MOTION_DOT":2.524e-5,"MEAN_MOTION_DDOT":0},{"OBJECT_NAME":"STARLINK-32923","OBJECT_ID":"2025-037W","EPOCH":"2025-11-02T10:22:55.941888","MEAN_MOTION":14.98327927,"ECCENTRICITY":0.0003254,"INCLINATION":70.0004,"RA_OF_ASC_NODE":315.178,"ARG_OF_PERICENTER":270.0913,"MEAN_ANOMALY":89.9873,"EPHEMERIS_TYPE":0,"CLASSIFICATION_TYPE":"U","NORAD_CAT_ID":63097,"ELEMENT_SET_NO":999,"REV_AT_EPOCH":3954,"BSTAR":0.00011271,"MEAN_MOTION_DOT":1.252e-5,"MEAN_MOTION_DDOT":0},{"OBJECT_NAME":"STARLINK-32913","OBJECT_ID":"2025-037X","EPOCH":"2025-11-02T10:40:57.726048","MEAN_MOTION":14.98335362,"ECCENTRICITY":0.0003272,"INCLINATION":69.9999,"RA_OF_ASC_NODE":315.214,"ARG_OF_PERICENTER":269.4187,"MEAN_ANOMALY":90.6597,"EPHEMERIS_TYPE":0,"CLASSIFICATION_TYPE":"U","NORAD_CAT_ID":63098,"ELEMENT_SET_NO":999,"REV_AT_EPOCH":3955,"BSTAR":0.00030754,"MEAN_MOTION_DOT":3.579e-5,"MEAN_MOTION_DDOT":0},{"OBJECT_NAME":"STARLINK-11629 [DTC]","OBJECT_ID":"2025-039A","EPOCH":"2025-11-02T08:50:01.120128","MEAN_MOTION":15.70907555,"ECCENTRICITY":0.0001686,"INCLINATION":43.0011,"RA_OF_ASC_NODE":284.0712,"ARG_OF_PERICENTER":272.4246,"MEAN_ANOMALY":87.6428,"EPHEMERIS_TYPE":0,"CLASSIFICATION_TYPE":"U","NORAD_CAT_ID":63104,"ELEMENT_SET_NO":999,"REV_AT_EPOCH":3959,"BSTAR":0.0012949,"MEAN_MOTION_DOT":0.00169622,"MEAN_MOTION_DDOT":0},{"OBJECT_NAME":"STARLINK-11624 [DTC]","OBJECT_ID":"2025-039B","EPOCH":"2025-11-02T05:17:49.185888","MEAN_MOTION":15.70970888,"ECCENTRICITY":8.043e-5,"INCLINATION":42.9996,"RA_OF_ASC_NODE":285.5698,"ARG_OF_PERICENTER":206.2087,"MEAN_ANOMALY":153.874,"EPHEMERIS_TYPE":0,"CLASSIFICATION_TYPE":"U","NORAD_CAT_ID":63105,"ELEMENT_SET_NO":999,"REV_AT_EPOCH":3956,"BSTAR":0.0017554302,"MEAN_MOTION_DOT":0.00232488,"MEAN_MOTION_DDOT":0},{"OBJECT_NAME":"STARLINK-11584 [DTC]","OBJECT_ID":"2025-039C","EPOCH":"2025-11-02T05:16:30.548928","MEAN_MOTION":15.71053663,"ECCENTRICITY":0.00014547,"INCLINATION":43.0004,"RA_OF_ASC_NODE":285.5617,"ARG_OF_PERICENTER":216.8261,"MEAN_ANOMALY":143.2507,"EPHEMERIS_TYPE":0,"CLASSIFICATION_TYPE":"U","NORAD_CAT_ID":63106,"ELEMENT_SET_NO":999,"REV_AT_EPOCH":3956,"BSTAR":0.0021339962,"MEAN_MOTION_DOT":0.00285541,"MEAN_MOTION_DDOT":0},{"OBJECT_NAME":"STARLINK-11627 [DTC]","OBJECT_ID":"2025-039D","EPOCH":"2025-11-02T12:00:02.000160","MEAN_MOTION":15.70885687,"ECCENTRICITY":0.0001559,"INCLINATION":42.9999,"RA_OF_ASC_NODE":283.4252,"ARG_OF_PERICENTER":273.6645,"MEAN_ANOMALY":53.359,"EPHEMERIS_TYPE":0,"CLASSIFICATION_TYPE":"U","NORAD_CAT_ID":63107,"ELEMENT_SET_NO":999,"REV_AT_EPOCH":597,"BSTAR":-0.00065668,"MEAN_MOTION_DOT":-0.00084026,"MEAN_MOTION_DDOT":0},{"OBJECT_NAME":"STARLINK-11632 [DTC]","OBJECT_ID":"2025-039E","EPOCH":"2025-11-02T06:25:07.870080","MEAN_MOTION":15.70901854,"ECCENTRICITY":0.0001498,"INCLINATION":43.0007,"RA_OF_ASC_NODE":285.0498,"ARG_OF_PERICENTER":255.0119,"MEAN_ANOMALY":105.0583,"EPHEMERIS_TYPE":0,"CLASSIFICATION_TYPE":"U","NORAD_CAT_ID":63108,"ELEMENT_SET_NO":999,"REV_AT_EPOCH":3957,"BSTAR":0.0017324,"MEAN_MOTION_DOT":0.00228657,"MEAN_MOTION_DDOT":0},{"OBJECT_NAME":"STARLINK-11625 [DTC]","OBJECT_ID":"2025-039F","EPOCH":"2025-11-01T22:54:59.047776","MEAN_MOTION":15.70958767,"ECCENTRICITY":6.434e-5,"INCLINATION":42.9984,"RA_OF_ASC_NODE":287.0078,"ARG_OF_PERICENTER":197.1068,"MEAN_ANOMALY":162.9778,"EPHEMERIS_TYPE":0,"CLASSIFICATION_TYPE":"U","NORAD_CAT_ID":63109,"ELEMENT_SET_NO":999,"REV_AT_EPOCH":3952,"BSTAR":0.002105344,"MEAN_MOTION_DOT":0.00280414,"MEAN_MOTION_DDOT":0},{"OBJECT_NAME":"STARLINK-11601 [DTC]","OBJECT_ID":"2025-039G","EPOCH":"2025-11-02T09:12:57.517056","MEAN_MOTION":15.7093098,"ECCENTRICITY":0.0001151,"INCLINATION":42.9987,"RA_OF_ASC_NODE":284.1965,"ARG_OF_PERICENTER":284.3133,"MEAN_ANOMALY":75.7607,"EPHEMERIS_TYPE":0,"CLASSIFICATION_TYPE":"U","NORAD_CAT_ID":63110,"ELEMENT_SET_NO":999,"REV_AT_EPOCH":3959,"BSTAR":0.0016734,"MEAN_MOTION_DOT":0.00220919,"MEAN_MOTION_DDOT":0},{"OBJECT_NAME":"STARLINK-11630 [DTC]","OBJECT_ID":"2025-039H","EPOCH":"2025-11-02T09:43:32.291904","MEAN_MOTION":15.70969242,"ECCENTRICITY":9.78e-5,"INCLINATION":42.9978,"RA_OF_ASC_NODE":284.3649,"ARG_OF_PERICENTER":230.3149,"MEAN_ANOMALY":129.7632,"EPHEMERIS_TYPE":0,"CLASSIFICATION_TYPE":"U","NORAD_CAT_ID":63111,"ELEMENT_SET_NO":999,"REV_AT_EPOCH":3959,"BSTAR":0.002353,"MEAN_MOTION_DOT":0.00314909,"MEAN_MOTION_DDOT":0}]
